{
  "id": 2048166449,
  "type": "Feature",
  "properties": {
    "edtf:cessation": "",
    "edtf:inception": "",
    "flysfo:url": "",
    "geom:area": 0,
    "geom:bbox": "-122.373853,37.619394,-122.373853,37.619394",
    "geom:latitude": 37.61939390848619,
    "geom:longitude": -122.37385309950533,
    "mz:is_current": 1,
    "sfac:accession_id": "T2020.50",
    "sfomuseum:artist_dates": "b. 1965",
    "sfomuseum:artist_name": "Andrea Bowers",
    "sfomuseum:boardingarea": "B \u0026 C",
    "sfomuseum:building": "T1",
    "sfomuseum:category": "sculpture",
    "sfomuseum:collection": "Arts Commission",
    "sfomuseum:date": "2026",
    "sfomuseum:gallery_id": 217570,
    "sfomuseum:map_id": 206,
    "sfomuseum:medium": "Painted aluminum, neon, mirror balls, motors, and spotlights",
    "sfomuseum:object_id": 217570,
    "sfomuseum:on_display": 1,
    "sfomuseum:placetype": "publicart",
    "sfomuseum:post_security": 0,
    "sfomuseum:subcategory": "ceiling sculpture",
    "src:geom": "sfomuseum",
    "wof:belongsto": [
      102527513,
      102191575,
      85633793,
      102087579,
      1729828959,
      85922583,
      554784711,
      85688637,
      102085387
    ],
    "wof:country": "US",
    "wof:created": 1787794517,
    "wof:geomhash": "7b93bfff1f215ea4c5091827f9c025f5",
    "wof:hierarchy": [
      {
        "campus_id": 102527513,
        "continent_id": 102191575,
        "country_id": 85633793,
        "county_id": 102087579,
        "custom_id": 1729828959,
        "liminal_id": 1729828959,
        "locality_id": 85922583,
        "postalcode_id": 554784711,
        "region_id": 85688637,
        "venue_id": 2048166449
      },
      {
        "campus_id": 102527513,
        "continent_id": 102191575,
        "country_id": 85633793,
        "county_id": 102085387,
        "custom_id": 1729828959,
        "liminal_id": 1729828959,
        "region_id": 85688637,
        "venue_id": 2048166449
      }
    ],
    "wof:id": 2048166449,
    "wof:label": "We've Got to Give Them Hope",
    "wof:lastmodified": 1787794517,
    "wof:name": "We've Got to Give Them Hope",
    "wof:parent_id": 1729828959,
    "wof:placetype": "venue",
    "wof:placetype_alt": [
      "publicart"
    ],
    "wof:repo": "sfomuseum-data-publicart",
    "wof:superseded_by": [],
    "wof:supersedes": []
  },
  "bbox": [
    -122.37385309950533,
    37.61939390848619,
    -122.37385309950533,
    37.61939390848619
  ],
  "geometry": {"type":"Point","coordinates":[-122.37385309950533,37.61939390848619]}
}
